start=new Date('2022-07-08T00:00:00.000Z').valueOf();
sats=[{"REF_FRAME":"TEME","MEAN_ELEMENT_THEORY":"SGP4","OBJECT_ID":"2020-038AJ","MEAN_MOTION_DOT":"0.00001470","GP_ID":"207628405","APOAPSIS":"542.695","EPHEMERIS_TYPE":"0","SITE":"AFETR","BSTAR":"0.00011216000000","ECCENTRICITY":"0.00016500","TLE_LINE1":"1 45762U 20038AJ  22188.82338897  .00001470  00000-0  11216-3 0  9992","REV_AT_EPOCH":"11439","ELEMENT_SET_NO":"999","LAUNCH_DATE":"2020-06-13","PERIAPSIS":"540.411","CLASSIFICATION_TYPE":"U","RA_OF_ASC_NODE":"115.3137","ARG_OF_PERICENTER":"53.2614","PERIOD":"95.475","OBJECT_NAME":"STARLINK-1499","COUNTRY_CODE":"US","NORAD_CAT_ID":"45762","FILE":"3509470","MEAN_MOTION_DDOT":"0.0000000000000","TIME_SYSTEM":"UTC","TLE_LINE2":"2 45762  53.0555 115.3137 0001650  53.2614 306.8527 15.08248798114394","DECAY_DATE":null,"CENTER_NAME":"EARTH","EPOCH":"2022-07-07T19:45:40.807008","MEAN_ANOMALY":"306.8527","SEMIMAJOR_AXIS":"6919.688","RCS_SIZE":"LARGE","MEAN_MOTION":"15.08248798","INCLINATION":"53.0555","OBJECT_TYPE":"PAYLOAD"},{"COUNTRY_CODE":"US","NORAD_CAT_ID":"45763","ARG_OF_PERICENTER":"39.8417","PERIOD":"90.686","OBJECT_NAME":"STARLINK-1501","TLE_LINE2":"2 45763  53.0407 295.4289 0006024  39.8417 320.3048 15.87897026117090","MEAN_MOTION_DDOT":"0.0000000000000","FILE":"3509470","TIME_SYSTEM":"UTC","SEMIMAJOR_AXIS":"6686.317","EPOCH":"2022-07-07T19:20:33.915840","MEAN_ANOMALY":"320.3048","CENTER_NAME":"EARTH","RCS_SIZE":"LARGE","DECAY_DATE":null,"OBJECT_TYPE":"PAYLOAD","INCLINATION":"53.0407","MEAN_MOTION":"15.87897026","MEAN_ELEMENT_THEORY":"SGP4","REF_FRAME":"TEME","EPHEMERIS_TYPE":"0","SITE":"AFETR","OBJECT_ID":"2020-038AK","APOAPSIS":"312.210","GP_ID":"207627182","MEAN_MOTION_DOT":"0.00137358","REV_AT_EPOCH":"11709","ELEMENT_SET_NO":"999","LAUNCH_DATE":"2020-06-13","BSTAR":"0.00049187000000","TLE_LINE1":"1 45763U 20038AK  22188.80594810  .00137358  00000-0  49187-3 0  9993","ECCENTRICITY":"0.00060240","RA_OF_ASC_NODE":"295.4289","PERIAPSIS":"304.154","CLASSIFICATION_TYPE":"U"},{"TIME_SYSTEM":"UTC","MEAN_MOTION_DDOT":"0.0000000000000","FILE":"3509470","TLE_LINE2":"2 45764  53.0549 116.0389 0001910  68.3105 291.8087 15.06403234114386","OBJECT_NAME":"STARLINK-1502","ARG_OF_PERICENTER":"68.3105","PERIOD":"95.592","NORAD_CAT_ID":"45764","COUNTRY_CODE":"US","INCLINATION":"53.0549","MEAN_MOTION":"15.06403234","OBJECT_TYPE":"PAYLOAD","DECAY_DATE":null,"RCS_SIZE":"LARGE","SEMIMAJOR_AXIS":"6925.339","MEAN_ANOMALY":"291.8087","EPOCH":"2022-07-07T19:35:39.961536","CENTER_NAME":"EARTH","APOAPSIS":"548.526","GP_ID":"207627431","MEAN_MOTION_DOT":"-0.00000191","OBJECT_ID":"2020-038AL","SITE":"AFETR","EPHEMERIS_TYPE":"0","REF_FRAME":"TEME","MEAN_ELEMENT_THEORY":"SGP4","CLASSIFICATION_TYPE":"U","PERIAPSIS":"545.881","RA_OF_ASC_NODE":"116.0389","ECCENTRICITY":"0.00019100","TLE_LINE1":"1 45764U 20038AL  22188.81643474 -.00000191  00000-0  60829-5 0  9999","BSTAR":"0.00000608290000","LAUNCH_DATE":"2020-06-13","REV_AT_EPOCH":"11438","ELEMENT_SET_NO":"999"},{"MEAN_MOTION":"15.06403015","INCLINATION":"53.0545","OBJECT_TYPE":"PAYLOAD","DECAY_DATE":null,"CENTER_NAME":"EARTH","EPOCH":"2022-07-07T19:19:45.048864","MEAN_ANOMALY":"291.5083","SEMIMAJOR_AXIS":"6925.339","RCS_SIZE":"LARGE","FILE":"3509470","MEAN_MOTION_DDOT":"0.0000000000000","TIME_SYSTEM":"UTC","TLE_LINE2":"2 45766  53.0545 116.0780 0002229  68.6144 291.5083 15.06403015114367","ARG_OF_PERICENTER":"68.6144","PERIOD":"95.592","OBJECT_NAME":"STARLINK-1509","COUNTRY_CODE":"US","NORAD_CAT_ID":"45766","PERIAPSIS":"545.661","CLASSIFICATION_TYPE":"U","RA_OF_ASC_NODE":"116.0780","BSTAR":"0.00008183900000","ECCENTRICITY":"0.00022290","TLE_LINE1":"1 45766U 20038AN  22188.80538251  .00000937  00000-0  81839-4 0  9996","REV_AT_EPOCH":"11436","ELEMENT_SET_NO":"999","LAUNCH_DATE":"2020-06-13","OBJECT_ID":"2020-038AN","MEAN_MOTION_DOT":"0.00000937","GP_ID":"207628178","APOAPSIS":"548.748","EPHEMERIS_TYPE":"0","SITE":"AFETR","REF_FRAME":"TEME","MEAN_ELEMENT_THEORY":"SGP4"},{"PERIAPSIS":"545.780","CLASSIFICATION_TYPE":"U","RA_OF_ASC_NODE":"116.1287","BSTAR":"0.00009149600000","ECCENTRICITY":"0.00020610","TLE_LINE1":"1 45767U 20038AP  22188.79801163  .00001081  00000-0  91496-4 0  9991","ELEMENT_SET_NO":"999","REV_AT_EPOCH":"11529","LAUNCH_DATE":"2020-06-13","OBJECT_ID":"2020-038AP","MEAN_MOTION_DOT":"0.00001081","GP_ID":"207606063","APOAPSIS":"548.634","EPHEMERIS_TYPE":"0","SITE":"AFETR","REF_FRAME":"TEME","MEAN_ELEMENT_THEORY":"SGP4","MEAN_MOTION":"15.06402153","INCLINATION":"53.0556","OBJECT_TYPE":"PAYLOAD","DECAY_DATE":null,"MEAN_ANOMALY":"293.8724","CENTER_NAME":"EARTH","EPOCH":"2022-07-07T19:09:08.204832","SEMIMAJOR_AXIS":"6925.342","RCS_SIZE":"LARGE","FILE":"3509383","MEAN_MOTION_DDOT":"0.0000000000000","TIME_SYSTEM":"UTC","TLE_LINE2":"2 45767  53.0556 116.1287 0002061  66.2481 293.8724 15.06402153115297","ARG_OF_PERICENTER":"66.2481","PERIOD":"95.592","OBJECT_NAME":"STARLINK-1511","COUNTRY_CODE":"US","NORAD_CAT_ID":"45767"},{"OBJECT_ID":"2020-038AQ","GP_ID":"207626682","MEAN_MOTION_DOT":"-0.00001223","APOAPSIS":"548.639","EPHEMERIS_TYPE":"0","SITE":"AFETR","REF_FRAME":"TEME","MEAN_ELEMENT_THEORY":"SGP4","PERIAPSIS":"545.789","CLASSIFICATION_TYPE":"U","RA_OF_ASC_NODE":"115.8977","BSTAR":"-0.00006320400000","ECCENTRICITY":"0.00020570","TLE_LINE1":"1 45768U 20038AQ  22188.84593375 -.00001223  00000-0 -63204-4 0  9997","REV_AT_EPOCH":"11438","ELEMENT_SET_NO":"999","LAUNCH_DATE":"2020-06-13","FILE":"3509470","MEAN_MOTION_DDOT":"0.0000000000000","TIME_SYSTEM":"UTC","TLE_LINE2":"2 45768  53.0539 115.8977 0002057  73.3698 286.7517 15.06399847114380","PERIOD":"95.592","ARG_OF_PERICENTER":"73.3698","OBJECT_NAME":"STARLINK-1521","COUNTRY_CODE":"US","NORAD_CAT_ID":"45768","MEAN_MOTION":"15.06399847","INCLINATION":"53.0539","OBJECT_TYPE":"PAYLOAD","DECAY_DATE":null,"EPOCH":"2022-07-07T20:18:08.676000","CENTER_NAME":"EARTH","MEAN_ANOMALY":"286.7517","SEMIMAJOR_AXIS":"6925.349","RCS_SIZE":"LARGE"},{"REF_FRAME":"TEME","MEAN_ELEMENT_THEORY":"SGP4","OBJECT_ID":"2020-038AR","MEAN_MOTION_DOT":"0.00002333","GP_ID":"207597975","APOAPSIS":"548.670","EPHEMERIS_TYPE":"0","SITE":"AFETR","BSTAR":"0.00017545000000","TLE_LINE1":"1 45769U 20038AR  22188.27276796  .00002333  00000-0  17545-3 0  9997","ECCENTRICITY":"0.00021260","REV_AT_EPOCH":"11401","ELEMENT_SET_NO":"999","LAUNCH_DATE":"2020-06-13","PERIAPSIS":"545.726","CLASSIFICATION_TYPE":"U","RA_OF_ASC_NODE":"138.4887","ARG_OF_PERICENTER":"69.8466","PERIOD":"95.592","OBJECT_NAME":"STARLINK-1459","COUNTRY_CODE":"US","NORAD_CAT_ID":"45769","FILE":"3509293","MEAN_MOTION_DDOT":"0.0000000000000","TIME_SYSTEM":"UTC","TLE_LINE2":"2 45769  53.0553 138.4887 0002126  69.8466 290.2751 15.06405067114010","DECAY_DATE":null,"EPOCH":"2022-07-07T06:32:47.151744","CENTER_NAME":"EARTH","MEAN_ANOMALY":"290.2751","SEMIMAJOR_AXIS":"6925.333","RCS_SIZE":"LARGE","MEAN_MOTION":"15.06405067","INCLINATION":"53.0553","OBJECT_TYPE":"PAYLOAD"},{"COUNTRY_CODE":"US","NORAD_CAT_ID":"45770","PERIOD":"95.593","ARG_OF_PERICENTER":"60.0099","OBJECT_NAME":"STARLINK-1462","TLE_LINE2":"2 45770  53.0559  99.0558 0001594  60.0099 300.1048 15.06391459114545","MEAN_MOTION_DDOT":"0.0000000000000","FILE":"3509293","TIME_SYSTEM":"UTC","SEMIMAJOR_AXIS":"6925.375","MEAN_ANOMALY":"300.1048","CENTER_NAME":"EARTH","EPOCH":"2022-07-07T03:25:40.092960","RCS_SIZE":"LARGE","DECAY_DATE":null,"OBJECT_TYPE":"PAYLOAD","INCLINATION":"53.0559","MEAN_MOTION":"15.06391459","MEAN_ELEMENT_THEORY":"SGP4","REF_FRAME":"TEME","EPHEMERIS_TYPE":"0","SITE":"AFETR","OBJECT_ID":"2020-038AS","APOAPSIS":"548.344","GP_ID":"207598227","MEAN_MOTION_DOT":"0.00003460","REV_AT_EPOCH":"11454","ELEMENT_SET_NO":"999","LAUNCH_DATE":"2020-06-13","BSTAR":"0.00025111000000","ECCENTRICITY":"0.00015940","TLE_LINE1":"1 45770U 20038AS  22188.14282515  .00003460  00000-0  25111-3 0  9991","RA_OF_ASC_NODE":"99.0558","PERIAPSIS":"546.136","CLASSIFICATION_TYPE":"U"},{"TIME_SYSTEM":"UTC","MEAN_MOTION_DDOT":"0.0000000000000","FILE":"3509470","TLE_LINE2":"2 45771  53.0557  96.4216 0001840  73.2520 286.8671 15.06408206114636","OBJECT_NAME":"STARLINK-1463","ARG_OF_PERICENTER":"73.2520","PERIOD":"95.592","NORAD_CAT_ID":"45771","COUNTRY_CODE":"US","INCLINATION":"53.0557","MEAN_MOTION":"15.06408206","OBJECT_TYPE":"PAYLOAD","DECAY_DATE":null,"RCS_SIZE":"LARGE","SEMIMAJOR_AXIS":"6925.323","CENTER_NAME":"EARTH","MEAN_ANOMALY":"286.8671","EPOCH":"2022-07-07T17:36:15.481728","APOAPSIS":"548.463","MEAN_MOTION_DOT":"0.00003268","GP_ID":"207628406","OBJECT_ID":"2020-038AT","SITE":"AFETR","EPHEMERIS_TYPE":"0","REF_FRAME":"TEME","MEAN_ELEMENT_THEORY":"SGP4","CLASSIFICATION_TYPE":"U","PERIAPSIS":"545.914","RA_OF_ASC_NODE":"96.4216","TLE_LINE1":"1 45771U 20038AT  22188.73351252  .00003268  00000-0  23812-3 0  9994","ECCENTRICITY":"0.00018400","BSTAR":"0.00023812000000","LAUNCH_DATE":"2020-06-13","REV_AT_EPOCH":"11463","ELEMENT_SET_NO":"999"},{"REV_AT_EPOCH":"11465","ELEMENT_SET_NO":"999","LAUNCH_DATE":"2020-06-13","BSTAR":"-0.00003624400000","TLE_LINE1":"1 45772U 20038AU  22188.78880175 -.00000821  00000-0 -36244-4 0  9999","ECCENTRICITY":"0.00013740","RA_OF_ASC_NODE":"96.1472","PERIAPSIS":"546.277","CLASSIFICATION_TYPE":"U","MEAN_ELEMENT_THEORY":"SGP4","REF_FRAME":"TEME","EPHEMERIS_TYPE":"0","SITE":"AFETR","OBJECT_ID":"2020-038AU","MEAN_MOTION_DOT":"-0.00000821","GP_ID":"207627183","APOAPSIS":"548.180","CENTER_NAME":"EARTH","MEAN_ANOMALY":"277.1269","EPOCH":"2022-07-07T18:55:52.471200","SEMIMAJOR_AXIS":"6925.363","RCS_SIZE":"LARGE","DECAY_DATE":null,"OBJECT_TYPE":"PAYLOAD","MEAN_MOTION":"15.06395151","INCLINATION":"53.0566","COUNTRY_CODE":"US","NORAD_CAT_ID":"45772","PERIOD":"95.592","ARG_OF_PERICENTER":"82.9877","OBJECT_NAME":"STARLINK-1470","TLE_LINE2":"2 45772  53.0566  96.1472 0001374  82.9877 277.1269 15.06395151114654","FILE":"3509470","MEAN_MOTION_DDOT":"0.0000000000000","TIME_SYSTEM":"UTC"}];
